$$SOE
2460721.500000000, A.D. 2025-Feb-15 00:00:00.0000, 2.388679533171795E+08, 1.824499166707818E+08, -4.952930645307772E+06,
2460728.500000000, A.D. 2025-Feb-22 00:00:00.0000, 2.302013122038825E+08, 1.928741345566035E+08, -5.902791246454574E+06,
2460735.500000000, A.D. 2025-Mar-01 00:00:00.0000, 2.211224152038493E+08, 2.029530019903367E+08, -6.842080616709366E+06,
2460742.500000000, A.D. 2025-Mar-08 00:00:00.0000, 2.116468876935795E+08, 2.126678964011785E+08, -7.769097396610796E+06,
2460749.500000000, A.D. 2025-Mar-15 00:00:00.0000, 2.017914136958778E+08, 2.220010877481168E+08, -8.682167632964328E+06,
2460756.500000000, A.D. 2025-Mar-22 00:00:00.0000, 1.915736678419134E+08, 2.309358146259416E+08, -9.579651519180015E+06,
2460763.500000000, A.D. 2025-Mar-29 00:00:00.0000, 1.810122418567442E+08, 2.394563517607082E+08, -1.045995022706133E+07,
2460770.500000000, A.D. 2025-Apr-05 00:00:00.0000, 1.701265666575117E+08, 2.475480712954825E+08, -1.132151253409006E+07,
2460777.500000000, A.D. 2025-Apr-12 00:00:00.0000, 1.589368289814332E+08, 2.551974973436989E+08, -1.216284099440071E+07,
2460784.500000000, A.D. 2025-Apr-19 00:00:00.0000, 1.474638832757166E+08, 2.623923524285090E+08, -1.298249764743452E+07,
2460791.500000000, A.D. 2025-Apr-26 00:00:00.0000, 1.357291600952928E+08, 2.691215952344621E+08, -1.377910925222015E+07,
2460798.500000000, A.D. 2025-May-03 00:00:00.0000, 1.237545721283162E+08, 2.753754494541835E+08, -1.455137201058045E+07,
2460805.500000000, A.D. 2025-May-10 00:00:00.0000, 1.115624188950060E+08, 2.811454236381413E+08, -1.529805574424534E+07,
2460812.500000000, A.D. 2025-May-17 00:00:00.0000, 9.917529116353457E+07, 2.864243220399885E+08, -1.601800750472663E+07,
2460819.500000000, A.D. 2025-May-24 00:00:00.0000, 8.661597623400028E+07, 2.912062465657232E+08, -1.671015461777095E+07,
2460826.500000000, A.D. 2025-May-31 00:00:00.0000, 7.390736543791614E+07, 2.954865904232105E+08, -1.737350716629253E+07,
2460833.500000000, A.D. 2025-Jun-07 00:00:00.0000, 6.107236432285671E+07, 2.992620250741666E+08, -1.800715977775490E+07,
2460840.500000000, A.D. 2025-Jun-14 00:00:00.0000, 4.813380395385475E+07, 3.025304803015525E+08, -1.861029256236720E+07,
2460847.500000000, A.D. 2025-Jun-21 00:00:00.0000, 3.511435524102636E+07, 3.052911146785173E+08, -1.918217159432039E+07,
2460854.500000000, A.D. 2025-Jun-28 00:00:00.0000, 2.203645002499164E+07, 3.075442788532339E+08, -1.972214910337767E+07,
2460861.500000000, A.D. 2025-Jul-05 00:00:00.0000, 8.922207920170806E+06, 3.092914744945567E+08, -2.022966309349707E+07,
2460868.500000000, A.D. 2025-Jul-12 00:00:00.0000, -4.206631868502265E+06, 3.105353088027570E+08, -2.070423637946460E+07,
2460875.500000000, A.D. 2025-Jul-19 00:00:00.0000, -1.732877326391511E+07, 3.112794447415354E+08, -2.114547514453992E+07,
2460882.500000000, A.D. 2025-Jul-26 00:00:00.0000, -3.042342015588381E+07, 3.115285476708466E+08, -2.155306708523452E+07,
2460889.500000000, A.D. 2025-Aug-02 00:00:00.0000, -4.347032718481753E+07, 3.112882291275680E+08, -2.192677919191281E+07,
2460896.500000000, A.D. 2025-Aug-09 00:00:00.0000, -5.644984442328189E+07, 3.105649884420832E+08, -2.226645521415871E+07,
2460903.500000000, A.D. 2025-Aug-16 00:00:00.0000, -6.934295593531869E+07, 3.093661527976816E+08, -2.257201286899161E+07,
2460910.500000000, A.D. 2025-Aug-23 00:00:00.0000, -8.213131204936509E+07, 3.076998163788373E+08, -2.284344086280166E+07,
2460917.500000000, A.D. 2025-Aug-30 00:00:00.0000, -9.479725520740999E+07, 3.055747799066674E+08, -2.308079574340615E+07,
2460924.500000000, A.D. 2025-Sep-06 00:00:00.0000, -1.073238410514110E+08, 3.030004920998121E+08, -2.328419841459025E+07,
2460931.500000000, A.D. 2025-Sep-13 00:00:00.0000, -1.196948566926818E+08, 2.999869910575695E+08, -2.345383040410998E+07,
2460938.500000000, A.D. 2025-Sep-20 00:00:00.0000, -1.318948331984439E+08, 2.965448443260316E+08, -2.358993035373962E+07,
2460945.500000000, A.D. 2025-Sep-27 00:00:00.0000, -1.439090515811341E+08, 2.926850911143904E+08, -2.369279060640928E+07,
2460952.500000000, A.D. 2025-Oct-04 00:00:00.0000, -1.557235446632607E+08, 2.884191875052191E+08, -2.376275369162913E+07,
2460959.500000000, A.D. 2025-Oct-11 00:00:00.0000, -1.673250955609795E+08, 2.837589539590204E+08, -2.380020877740110E+07,
2460966.500000000, A.D. 2025-Oct-18 00:00:00.0000, -1.787012328836668E+08, 2.787165250393850E+08, -2.380558816159846E+07,
2460973.500000000, A.D. 2025-Oct-25 00:00:00.0000, -1.898402228857502E+08, 2.733043015339063E+08, -2.377936383875455E+07,
2460980.500000000, A.D. 2025-Nov-01 00:00:00.0000, -2.007310588918284E+08, 2.675349051082879E+08, -2.372204416565277E+07,
2460987.500000000, A.D. 2025-Nov-08 00:00:00.0000, -2.113634483042179E+08, 2.614211355395144E+08, -2.363417064804113E+07,
2460994.500000000, A.D. 2025-Nov-15 00:00:00.0000, -2.217277973729790E+08, 2.549759305061183E+08, -2.351631487924813E+07,
2461001.500000000, A.D. 2025-Nov-22 00:00:00.0000, -2.318151936375465E+08, 2.482123281581505E+08, -2.336907565879092E+07,
2461008.500000000, A.D. 2025-Nov-29 00:00:00.0000, -2.416173864882708E+08, 2.411434335767528E+08, -2.319307619079666E+07,
2461015.500000000, A.D. 2025-Dec-06 00:00:00.0000, -2.511267684027855E+08, 2.337823889422784E+08, -2.298896116975795E+07,
2461022.500000000, A.D. 2025-Dec-13 00:00:00.0000, -2.603363566744826E+08, 2.261423439790331E+08, -2.275739407289835E+07,
2461029.500000000, A.D. 2025-Dec-20 00:00:00.0000, -2.692397723629892E+08, 2.182364276137360E+08, -2.249905489690202E+07,
2461036.500000000, A.D. 2025-Dec-27 00:00:00.0000, -2.778312177539679E+08, 2.100777233396862E+08, -2.221463802871167E+07,
2461043.500000000, A.D. 2026-Jan-03 00:00:00.0000, -2.861054539828967E+08, 2.016792475718208E+08, -2.190485016624641E+07,
2461050.500000000, A.D. 2026-Jan-10 00:00:00.0000, -2.940577788806324E+08, 1.930539302059265E+08, -2.157040835190131E+07,
2461057.500000000, A.D. 2026-Jan-17 00:00:00.0000, -3.016840049554120E+08, 1.842145971742665E+08, -2.121203814402778E+07,
2461064.500000000, A.D. 2026-Jan-24 00:00:00.0000, -3.089804375637754E+08, 1.751739549012997E+08, -2.083047192765001E+07,
2461071.500000000, A.D. 2026-Jan-31 00:00:00.0000, -3.159438533606799E+08, 1.659445765327353E+08, -2.042644736258181E+07,
2461078.500000000, A.D. 2026-Feb-07 00:00:00.0000, -3.225714790645880E+08, 1.565388897620440E+08, -2.000070597409624E+07,
2461085.500000000, A.D. 2026-Feb-14 00:00:00.0000, -3.288609703658919E+08, 1.469691661221302E+08, -1.955399190488788E+07,
2461092.500000000, A.D. 2026-Feb-21 00:00:00.0000, -3.348103906574914E+08, 1.372475122038506E+08, -1.908705081048790E+07,
2461099.500000000, A.D. 2026-Feb-28 00:00:00.0000, -3.404181907262879E+08, 1.273858638408837E+08, -1.860062869796870E+07,
2461106.500000000, A.D. 2026-Mar-07 00:00:00.0000, -3.456831915101897E+08, 1.173959812004308E+08, -1.809547067266042E+07,
2461113.500000000, A.D. 2026-Mar-14 00:00:00.0000, -3.506045671808585E+08, 1.072894423429939E+08, -1.757232003228050E+07,
2461120.500000000, A.D. 2026-Mar-21 00:00:00.0000, -3.551818267909983E+08, 9.707763804680584E+07, -1.703191762816565E+07,
2461127.500000000, A.D. 2026-Mar-28 00:00:00.0000, -3.594147965148740E+08, 8.677176882419370E+07, -1.647500121919413E+07,
2461134.500000000, A.D. 2026-Apr-04 00:00:00.0000, -3.633036031056086E+08, 7.638284307323891E+07, -1.590230483753792E+07,
2461141.500000000, A.D. 2026-Apr-11 00:00:00.0000, -3.668486583065856E+08, 6.592167592349605E+07, -1.531455821603684E+07,
2461148.500000000, A.D. 2026-Apr-18 00:00:00.0000, -3.700506440596576E+08, 5.539888869243552E+07, -1.471248628698859E+07,
2461155.500000000, A.D. 2026-Apr-25 00:00:00.0000, -3.729104984603898E+08, 4.482490889441834E+07, -1.409680874997469E+07,
2461162.500000000, A.D. 2026-May-02 00:00:00.0000, -3.754294024215969E+08, 3.420997070385417E+07, -1.346823970880401E+07,
2461169.500000000, A.D. 2026-May-09 00:00:00.0000, -3.776087669094150E+08, 2.356411574192897E+07, -1.282748738954499E+07,
2461176.500000000, A.D. 2026-May-16 00:00:00.0000, -3.794502203603509E+08, 1.289719426526844E+07, -1.217525395844115E+07,
2461183.500000000, A.D. 2026-May-23 00:00:00.0000, -3.809555962118416E+08, 2.218867723212764E+06, -1.151223535666811E+07,
2461190.500000000, A.D. 2026-May-30 00:00:00.0000, -3.821269226083998E+08, -8.461387048610119E+06, -1.083912093142993E+07,
2461197.500000000, A.D. 2026-Jun-06 00:00:00.0000, -3.829664145860121E+08, -1.913427531883914E+07, -1.015659309867612E+07,
2461204.500000000, A.D. 2026-Jun-13 00:00:00.0000, -3.834764650518958E+08, -2.979068347520030E+07, -9.465327354032246E+06,
2461211.500000000, A.D. 2026-Jun-20 00:00:00.0000, -3.836596350347980E+08, -4.042167667231811E+07, -8.765992342663646E+06,
2461218.500000000, A.D. 2026-Jun-27 00:00:00.0000, -3.835186448752668E+08, -5.101849548933594E+07, -8.059249856338978E+06,
2461225.500000000, A.D. 2026-Jul-04 00:00:00.0000, -3.830563663322024E+08, -6.157255241000224E+07, -7.345754818542413E+06,
2461232.500000000, A.D. 2026-Jul-11 00:00:00.0000, -3.822758153332052E+08, -7.207542829176456E+07, -6.626155289992340E+06,
2461239.500000000, A.D. 2026-Jul-18 00:00:00.0000, -3.811801452603244E+08, -8.251886882806946E+07, -5.901092499537852E+06,
2461246.500000000, A.D. 2026-Jul-25 00:00:00.0000, -3.797726407317091E+08, -9.289478102601752E+07, -5.171200900985267E+06,
2461253.500000000, A.D. 2026-Aug-01 00:00:00.0000, -3.780567118145925E+08, -1.031952297682141E+08, -4.437108262479238E+06,
2461260.500000000, A.D. 2026-Aug-08 00:00:00.0000, -3.760358884362507E+08, -1.134124345129432E+08, -3.699435809133083E+06,
2461267.500000000, A.D. 2026-Aug-15 00:00:00.0000, -3.737138145581225E+08, -1.235387656991338E+08, -2.958798418171011E+06,
2461274.500000000, A.D. 2026-Aug-22 00:00:00.0000, -3.710942428537706E+08, -1.335667396507931E+08, -2.215804695102006E+06,
2461281.500000000, A.D. 2026-Aug-29 00:00:00.0000, -3.681810321604304E+08, -1.434890133696297E+08, -1.471056831631504E+06,
$$EOE